[{"OBJECT_NAME":"STARLINK-32938","OBJECT_ID":"2025-048U","EPOCH":"2026-03-09T02:42:48.949056","MEAN_MOTION":15.27619256,"ECCENTRICITY":0.0001638,"INCLINATION":42.9993,"RA_OF_ASC_NODE":88.5968,"ARG_OF_PERICENTER":281.6185,"MEAN_ANOMALY":78.4483,"EPHEMERIS_TYPE":0,"CLASSIFICATION_TYPE":"U","NORAD_CAT_ID":63201,"ELEMENT_SET_NO":999,"REV_AT_EPOCH":5700,"BSTAR":0.0010035032,"MEAN_MOTION_DOT":0.00027488,"MEAN_MOTION_DDOT":0},{"OBJECT_NAME":"OBJECT H","OBJECT_ID":"2025-055H","EPOCH":"2026-03-09T23:29:50.051328","MEAN_MOTION":15.30330066,"ECCENTRICITY":0.00075967,"INCLINATION":97.636,"RA_OF_ASC_NODE":211.9572,"ARG_OF_PERICENTER":140.4354,"MEAN_ANOMALY":219.7441,"EPHEMERIS_TYPE":0,"CLASSIFICATION_TYPE":"U","NORAD_CAT_ID":63298,"ELEMENT_SET_NO":999,"REV_AT_EPOCH":5423,"BSTAR":0.0015582864,"MEAN_MOTION_DOT":0.00045901,"MEAN_MOTION_DDOT":0}]
